ONEWEB-0290             
1 49080U 21075F   25277.80513701 -.00000027  00000+0 -10361-3 0  9998
2 49080  87.9087  56.6297 0002002 114.3170 245.8170 13.17648333199980
ONEWEB-0291             
1 49081U 21075G   25277.63808000 -.00000002  00000+0 -38900-4 0  9992
2 49081  87.9090  56.6683 0002110  94.4754 265.6619 13.17650095199953
ONEWEB-0293             
1 49082U 21075H   25277.43558039  .00000070  00000+0  14721-3 0  9992
2 49082  87.9076  56.7358 0001790 100.3742 259.7591 13.17648258199956
ONEWEB-0294             
1 49083U 21075J   25278.08740022  .00000150  00000+0  38084-3 0  9997
2 49083  87.8940  41.3301 0002145 108.8240 251.3122 13.12443105201114
ONEWEB-0295             
1 49084U 21075K   25277.81441056 -.00000018  00000+0 -79037-4 0  9992
2 49084  87.9082  56.6648 0002057  92.8619 267.2748 13.17649693199964
ONEWEB-0296             
1 49085U 21075L   25278.06794676 -.00000410  00000+0 -11746-2 0  9997
2 49085  87.8944  41.3398 0002212  98.9965 261.1414 13.12443319201114
ONEWEB-0297             
1 49086U 21075M   25277.79381088  .00000370  00000+0  99404-3 0  9997
2 49086  87.8935  41.4304 0001777  96.7130 263.4200 13.12441728201680
ONEWEB-0298             
1 49087U 21075N   25277.66690147  .00000015  00000+0  54649-5 0  9993
2 49087  87.9085  56.6888 0001668  95.0324 265.0998 13.17648080199974
ONEWEB-0299             
1 49088U 21075P   25277.82030700 -.00000012  00000+0 -65091-4 0  9996
2 49088  87.9085  56.6157 0001829  92.4300 267.7041 13.17651598199974
ONEWEB-0300             
1 49089U 21075Q   25277.63322192  .00000441  00000+0  11897-2 0  9992
2 49089  87.8937  41.4167 0001475  94.7729 265.3568 13.12442374201685
ONEWEB-0301             
1 49090U 21075R   25278.07442052 -.00000225  00000+0 -66100-3 0  9991
2 49090  87.8940  41.3329 0001302  93.2310 266.8968 13.12443468201101
ONEWEB-0302             
1 49091U 21075S   25278.06144411 -.00000415  00000+0 -11894-2 0  9999
2 49091  87.8943  41.3424 0002033 104.2419 255.8935 13.12442107201084
ONEWEB-0304             
1 49092U 21075T   25277.79501328 -.00000043  00000+0 -14289-3 0  9992
2 49092  87.9088  56.6515 0001826  93.9739 266.1601 13.17649246199948
ONEWEB-0305             
1 49093U 21075U   25277.86420370  .00000107  00000+0  24147-3 0  9991
2 49093  87.9091  56.6143 0002031  88.9503 271.1861 13.17649242199986
ONEWEB-0308             
1 49094U 21075V   25278.05495904 -.00000215  00000+0 -63370-3 0  9992
2 49094  87.8947  41.3356 0001682  99.7677 260.3641 13.12442492201091
ONEWEB-0309             
1 49095U 21075W   25277.79161905 -.00000066  00000+0 -20384-3 0  9996
2 49095  87.9089  56.6459 0002088 104.2879 255.8484 13.17649577199942
ONEWEB-0310             
1 49096U 21075X   25278.06955508 -.00000419  00000+0 -12014-2 0  9990
2 49096  87.8934  41.3754 0001838 101.2523 258.8812 13.12443523201721
