[{"OBJECT_NAME":"ONEWEB-0290","OBJECT_ID":"2021-075F","EPOCH":"2025-10-04T19:19:23.837664","MEAN_MOTION":13.17648333,"ECCENTRICITY":0.0002002,"INCLINATION":87.9087,"RA_OF_ASC_NODE":56.6297,"ARG_OF_PERICENTER":114.317,"MEAN_ANOMALY":245.817,"EPHEMERIS_TYPE":0,"CLASSIFICATION_TYPE":"U","NORAD_CAT_ID":49080,"ELEMENT_SET_NO":999,"REV_AT_EPOCH":19998,"BSTAR":-0.00010361,"MEAN_MOTION_DOT":-2.7e-7,"MEAN_MOTION_DDOT":0},{"OBJECT_NAME":"ONEWEB-0291","OBJECT_ID":"2021-075G","EPOCH":"2025-10-04T15:18:50.112000","MEAN_MOTION":13.17650095,"ECCENTRICITY":0.000211,"INCLINATION":87.909,"RA_OF_ASC_NODE":56.6683,"ARG_OF_PERICENTER":94.4754,"MEAN_ANOMALY":265.6619,"EPHEMERIS_TYPE":0,"CLASSIFICATION_TYPE":"U","NORAD_CAT_ID":49081,"ELEMENT_SET_NO":999,"REV_AT_EPOCH":19995,"BSTAR":-3.89e-5,"MEAN_MOTION_DOT":-2.0e-8,"MEAN_MOTION_DDOT":0},{"OBJECT_NAME":"ONEWEB-0293","OBJECT_ID":"2021-075H","EPOCH":"2025-10-04T10:27:14.145696","MEAN_MOTION":13.17648258,"ECCENTRICITY":0.000179,"INCLINATION":87.9076,"RA_OF_ASC_NODE":56.7358,"ARG_OF_PERICENTER":100.3742,"MEAN_ANOMALY":259.7591,"EPHEMERIS_TYPE":0,"CLASSIFICATION_TYPE":"U","NORAD_CAT_ID":49082,"ELEMENT_SET_NO":999,"REV_AT_EPOCH":19995,"BSTAR":0.00014721,"MEAN_MOTION_DOT":7.0e-7,"MEAN_MOTION_DDOT":0},{"OBJECT_NAME":"ONEWEB-0294","OBJECT_ID":"2021-075J","EPOCH":"2025-10-05T02:05:51.379008","MEAN_MOTION":13.12443105,"ECCENTRICITY":0.0002145,"INCLINATION":87.894,"RA_OF_ASC_NODE":41.3301,"ARG_OF_PERICENTER":108.824,"MEAN_ANOMALY":251.3122,"EPHEMERIS_TYPE":0,"CLASSIFICATION_TYPE":"U","NORAD_CAT_ID":49083,"ELEMENT_SET_NO":999,"REV_AT_EPOCH":20111,"BSTAR":0.00038084,"MEAN_MOTION_DOT":1.5e-6,"MEAN_MOTION_DDOT":0},{"OBJECT_NAME":"ONEWEB-0295","OBJECT_ID":"2021-075K","EPOCH":"2025-10-04T19:32:45.072384","MEAN_MOTION":13.17649693,"ECCENTRICITY":0.0002057,"INCLINATION":87.9082,"RA_OF_ASC_NODE":56.6648,"ARG_OF_PERICENTER":92.8619,"MEAN_ANOMALY":267.2748,"EPHEMERIS_TYPE":0,"CLASSIFICATION_TYPE":"U","NORAD_CAT_ID":49084,"ELEMENT_SET_NO":999,"REV_AT_EPOCH":19996,"BSTAR":-7.9037e-5,"MEAN_MOTION_DOT":-1.8e-7,"MEAN_MOTION_DDOT":0},{"OBJECT_NAME":"ONEWEB-0296","OBJECT_ID":"2021-075L","EPOCH":"2025-10-05T01:37:50.600064","MEAN_MOTION":13.12443319,"ECCENTRICITY":0.0002212,"INCLINATION":87.8944,"RA_OF_ASC_NODE":41.3398,"ARG_OF_PERICENTER":98.9965,"MEAN_ANOMALY":261.1414,"EPHEMERIS_TYPE":0,"CLASSIFICATION_TYPE":"U","NORAD_CAT_ID":49085,"ELEMENT_SET_NO":999,"REV_AT_EPOCH":20111,"BSTAR":-0.0011746,"MEAN_MOTION_DOT":-4.1e-6,"MEAN_MOTION_DDOT":0},{"OBJECT_NAME":"ONEWEB-0297","OBJECT_ID":"2021-075M","EPOCH":"2025-10-04T19:03:05.260032","MEAN_MOTION":13.12441728,"ECCENTRICITY":0.0001777,"INCLINATION":87.8935,"RA_OF_ASC_NODE":41.4304,"ARG_OF_PERICENTER":96.713,"MEAN_ANOMALY":263.42,"EPHEMERIS_TYPE":0,"CLASSIFICATION_TYPE":"U","NORAD_CAT_ID":49086,"ELEMENT_SET_NO":999,"REV_AT_EPOCH":20168,"BSTAR":0.00099404,"MEAN_MOTION_DOT":3.7e-6,"MEAN_MOTION_DDOT":0},{"OBJECT_NAME":"ONEWEB-0298","OBJECT_ID":"2021-075N","EPOCH":"2025-10-04T16:00:20.287008","MEAN_MOTION":13.1764808,"ECCENTRICITY":0.0001668,"INCLINATION":87.9085,"RA_OF_ASC_NODE":56.6888,"ARG_OF_PERICENTER":95.0324,"MEAN_ANOMALY":265.0998,"EPHEMERIS_TYPE":0,"CLASSIFICATION_TYPE":"U","NORAD_CAT_ID":49087,"ELEMENT_SET_NO":999,"REV_AT_EPOCH":19997,"BSTAR":5.4649e-6,"MEAN_MOTION_DOT":1.5e-7,"MEAN_MOTION_DDOT":0},{"OBJECT_NAME":"ONEWEB-0299","OBJECT_ID":"2021-075P","EPOCH":"2025-10-04T19:41:14.524800","MEAN_MOTION":13.17651598,"ECCENTRICITY":0.0001829,"INCLINATION":87.9085,"RA_OF_ASC_NODE":56.6157,"ARG_OF_PERICENTER":92.43,"MEAN_ANOMALY":267.7041,"EPHEMERIS_TYPE":0,"CLASSIFICATION_TYPE":"U","NORAD_CAT_ID":49088,"ELEMENT_SET_NO":999,"REV_AT_EPOCH":19997,"BSTAR":-6.5091e-5,"MEAN_MOTION_DOT":-1.2e-7,"MEAN_MOTION_DDOT":0},{"OBJECT_NAME":"ONEWEB-0300","OBJECT_ID":"2021-075Q","EPOCH":"2025-10-04T15:11:50.373888","MEAN_MOTION":13.12442374,"ECCENTRICITY":0.0001475,"INCLINATION":87.8937,"RA_OF_ASC_NODE":41.4167,"ARG_OF_PERICENTER":94.7729,"MEAN_ANOMALY":265.3568,"EPHEMERIS_TYPE":0,"CLASSIFICATION_TYPE":"U","NORAD_CAT_ID":49089,"ELEMENT_SET_NO":999,"REV_AT_EPOCH":20168,"BSTAR":0.0011897,"MEAN_MOTION_DOT":4.41e-6,"MEAN_MOTION_DDOT":0},{"OBJECT_NAME":"ONEWEB-0301","OBJECT_ID":"2021-075R","EPOCH":"2025-10-05T01:47:09.932928","MEAN_MOTION":13.12443468,"ECCENTRICITY":0.0001302,"INCLINATION":87.894,"RA_OF_ASC_NODE":41.3329,"ARG_OF_PERICENTER":93.231,"MEAN_ANOMALY":266.8968,"EPHEMERIS_TYPE":0,"CLASSIFICATION_TYPE":"U","NORAD_CAT_ID":49090,"ELEMENT_SET_NO":999,"REV_AT_EPOCH":20110,"BSTAR":-0.000661,"MEAN_MOTION_DOT":-2.25e-6,"MEAN_MOTION_DDOT":0},{"OBJECT_NAME":"ONEWEB-0302","OBJECT_ID":"2021-075S","EPOCH":"2025-10-05T01:28:28.771104","MEAN_MOTION":13.12442107,"ECCENTRICITY":0.0002033,"INCLINATION":87.8943,"RA_OF_ASC_NODE":41.3424,"ARG_OF_PERICENTER":104.2419,"MEAN_ANOMALY":255.8935,"EPHEMERIS_TYPE":0,"CLASSIFICATION_TYPE":"U","NORAD_CAT_ID":49091,"ELEMENT_SET_NO":999,"REV_AT_EPOCH":20108,"BSTAR":-0.0011894,"MEAN_MOTION_DOT":-4.15e-6,"MEAN_MOTION_DDOT":0},{"OBJECT_NAME":"ONEWEB-0304","OBJECT_ID":"2021-075T","EPOCH":"2025-10-04T19:04:49.147392","MEAN_MOTION":13.17649246,"ECCENTRICITY":0.0001826,"INCLINATION":87.9088,"RA_OF_ASC_NODE":56.6515,"ARG_OF_PERICENTER":93.9739,"MEAN_ANOMALY":266.1601,"EPHEMERIS_TYPE":0,"CLASSIFICATION_TYPE":"U","NORAD_CAT_ID":49092,"ELEMENT_SET_NO":999,"REV_AT_EPOCH":19994,"BSTAR":-0.00014289,"MEAN_MOTION_DOT":-4.3e-7,"MEAN_MOTION_DDOT":0},{"OBJECT_NAME":"ONEWEB-0305","OBJECT_ID":"2021-075U","EPOCH":"2025-10-04T20:44:27.199680","MEAN_MOTION":13.17649242,"ECCENTRICITY":0.0002031,"INCLINATION":87.9091,"RA_OF_ASC_NODE":56.6143,"ARG_OF_PERICENTER":88.9503,"MEAN_ANOMALY":271.1861,"EPHEMERIS_TYPE":0,"CLASSIFICATION_TYPE":"U","NORAD_CAT_ID":49093,"ELEMENT_SET_NO":999,"REV_AT_EPOCH":19998,"BSTAR":0.00024147,"MEAN_MOTION_DOT":1.07e-6,"MEAN_MOTION_DDOT":0},{"OBJECT_NAME":"ONEWEB-0308","OBJECT_ID":"2021-075V","EPOCH":"2025-10-05T01:19:08.461056","MEAN_MOTION":13.12442492,"ECCENTRICITY":0.0001682,"INCLINATION":87.8947,"RA_OF_ASC_NODE":41.3356,"ARG_OF_PERICENTER":99.7677,"MEAN_ANOMALY":260.3641,"EPHEMERIS_TYPE":0,"CLASSIFICATION_TYPE":"U","NORAD_CAT_ID":49094,"ELEMENT_SET_NO":999,"REV_AT_EPOCH":20109,"BSTAR":-0.0006337,"MEAN_MOTION_DOT":-2.15e-6,"MEAN_MOTION_DDOT":0},{"OBJECT_NAME":"ONEWEB-0309","OBJECT_ID":"2021-075W","EPOCH":"2025-10-04T18:59:55.885920","MEAN_MOTION":13.17649577,"ECCENTRICITY":0.0002088,"INCLINATION":87.9089,"RA_OF_ASC_NODE":56.6459,"ARG_OF_PERICENTER":104.2879,"MEAN_ANOMALY":255.8484,"EPHEMERIS_TYPE":0,"CLASSIFICATION_TYPE":"U","NORAD_CAT_ID":49095,"ELEMENT_SET_NO":999,"REV_AT_EPOCH":19994,"BSTAR":-0.00020384,"MEAN_MOTION_DOT":-6.6e-7,"MEAN_MOTION_DDOT":0},{"OBJECT_NAME":"ONEWEB-0310","OBJECT_ID":"2021-075X","EPOCH":"2025-10-05T01:40:09.558912","MEAN_MOTION":13.12443523,"ECCENTRICITY":0.0001838,"INCLINATION":87.8934,"RA_OF_ASC_NODE":41.3754,"ARG_OF_PERICENTER":101.2523,"MEAN_ANOMALY":258.8812,"EPHEMERIS_TYPE":0,"CLASSIFICATION_TYPE":"U","NORAD_CAT_ID":49096,"ELEMENT_SET_NO":999,"REV_AT_EPOCH":20172,"BSTAR":-0.0012014,"MEAN_MOTION_DOT":-4.19e-6,"MEAN_MOTION_DDOT":0}]
